STARLINK-1801
1 16701C 20073AH  21326.13159135  .00005289  00000-0  35435-3 0  3263
2 16701  53.0548  83.1408 0001177  73.4267 345.3672 15.06396711    14
